[{"OBJECT_NAME":"KUIPER-00059","OBJECT_ID":"2025-134V","EPOCH":"2026-03-09T17:04:14.081376","MEAN_MOTION":14.79930671,"ECCENTRICITY":9.053e-5,"INCLINATION":51.8998,"RA_OF_ASC_NODE":220.4892,"ARG_OF_PERICENTER":151.7188,"MEAN_ANOMALY":208.3824,"EPHEMERIS_TYPE":0,"CLASSIFICATION_TYPE":"U","NORAD_CAT_ID":64519,"ELEMENT_SET_NO":999,"REV_AT_EPOCH":4025,"BSTAR":0.00030289099,"MEAN_MOTION_DOT":2.088e-5,"MEAN_MOTION_DDOT":0},{"OBJECT_NAME":"SL-14 R\/B","OBJECT_ID":"1987-055B","EPOCH":"2026-03-09T21:07:11.149824","MEAN_MOTION":14.85629907,"ECCENTRICITY":0.00211346,"INCLINATION":82.503,"RA_OF_ASC_NODE":348.8521,"ARG_OF_PERICENTER":17.214,"MEAN_ANOMALY":342.9788,"EPHEMERIS_TYPE":0,"CLASSIFICATION_TYPE":"U","NORAD_CAT_ID":18153,"ELEMENT_SET_NO":999,"REV_AT_EPOCH":6996,"BSTAR":7.8350506e-5,"MEAN_MOTION_DOT":7.05e-6,"MEAN_MOTION_DDOT":0}]
